1998-067TE              
1 51442U 98067TE  22045.20077967  .00027679  00000+0  46743-3 0  9994
2 51442  51.6391 225.4961 0008021 150.4268 209.7176 15.51377104  2940
DAILI                   
1 51443U 98067TF  22044.55015384  .00058876  00000+0  94398-3 0  9999
2 51443  51.6390 228.6528 0008661 132.6364 227.5357 15.52464624  2802
CSG-2                   
1 51444U 22008A   22045.17031632  .00100509  00000+0  12109-1 0  9994
2 51444  97.8849 230.6375 0002006 169.3689 190.7501 14.83304045  1951
STARLINK-3167           
1 51460U 22010E   22045.25001157 -.00718934  00000+0 -28524-2 0  9991
2 51460  53.2173 120.6340 0006281 251.7081  87.3118 15.87584282  2905
STARLINK-3181           
1 51461U 22010F   22045.25001157 -.00793850  00000+0 -34138-2 0  9990
2 51461  53.2176 120.7231 0004124 264.1907  27.7463 15.86160762  2967
STARLINK-3166           
1 51462U 22010G   22045.25001157 -.00818299  00000+0 -35279-2 0  9993
2 51462  53.2174 120.7211 0003499 258.6637  34.0455 15.86173795  2935
STARLINK-3419           
1 51463U 22010H   22045.25001157 -.00872151  00000+0 -35046-2 0  9993
2 51463  53.2177 120.6310 0006171 268.1570  73.3577 15.87675137  2906
STARLINK-3189           
1 51464U 22010J   22045.25001157 -.00809715  00000+0 -34842-2 0  9993
2 51464  53.2173 120.7191 0004139 264.5680  28.9759 15.86184549  2915
STARLINK-3401           
1 51465U 22010K   22044.58334491 -.00894927  00000+0 -36275-2 0  9990
2 51465  53.2174 124.0869 0009001 258.8046 184.7928 15.87495259  2060
STARLINK-3178           
1 51467U 22010M   22045.25001157 -.00774120  00000+0 -30901-2 0  9999
2 51467  53.2173 120.6268 0005572 260.1709  82.0920 15.87597478  2964
STARLINK-3174           
1 51468U 22010N   22045.25001157 -.00796766  00000+0 -31822-2 0  9993
2 51468  53.2171 120.6320 0005542 251.2775  88.4794 15.87638097  2965
STARLINK-3182           
1 51469U 22010P   22045.25001157 -.00833234  00000+0 -35954-2 0  9996
2 51469  53.2174 120.7202 0003169 260.3387  32.7350 15.86194997  2967
STARLINK-3165           
1 51471U 22010R   22044.41667824 -.00869411  25306-3 -18239-2 0  9998
2 51471  53.2172 124.3996 0007945 267.1673 195.3674 15.98177164  2041
STARLINK-3415           
1 51472U 22010S   22045.25001157 -.00871927  00000+0 -35021-2 0  9996
2 51472  53.2177 120.6330 0005917 268.1201  72.4014 15.87688216  2960
FALCON 9 DEB            
1 51473U 22010T   22045.22036350  .03404546  11950-4  67220-3 0  9995
2 51473  53.2043 119.6083 0029971 207.1188 152.8292 16.29314931  2484
FALCON 9 DEB            
1 51474U 22010U   22045.22785266  .02834065  11871-4  68408-3 0  9996
2 51474  53.1997 119.6549 0037857 198.5056 161.4612 16.26437614  2481
FALCON 9 DEB            
1 51475U 22010V   22045.20642865  .07001530  12087-4  57016-3 0  9993
2 51475  53.2010 119.5133 0017762 203.7251 156.2979 16.38432607  2484
FALCON 9 DEB            
1 51476U 22010W   22045.21410546  .03881303  11989-4  62909-3 0  9991
2 51476  53.2045 119.5671 0028665 201.6733 158.3101 16.31370604  2487
LIGHT-1                 
1 51509U 98067TG  22044.88574347  .00027638  00000+0  47407-3 0  9998
2 51509  51.6418 227.1334 0009857 133.8255 226.3549 15.50922830  1675
GT-1                    
1 51510U 98067TH  22044.88459291  .00065126  00000+0  10814-2 0  9995
2 51510  51.6424 227.1323 0008698 130.7162 229.4594 15.51442665  1697
COSMOS 2553             
1 51511U 22011A   22044.65251108 -.00000109  00000+0 -20273-2 0  9996
2 51511  67.0890 216.2541 0003967 266.9953  93.0536 11.32883654   952
2022-013A               
1 51656U 22013A   22045.32435313  .00001685  00000+0  10000-3 0  9991
2 51656  97.5514  54.4333 0010461 248.6828 111.3339 15.12669034    40
2022-013B               
1 51657U 22013B   22045.32730471  .00595061  00000+0  31358-1 0  9998
2 51657  97.5640  54.4400 0009704 252.6704 123.7726 15.13083661    46
2022-013C               
1 51658U 22013C   22045.32597022  .00001709  00000+0  10000-3 0  9996
2 51658  97.5586  54.4383 0009330 257.6312 111.7045 15.13174143    48
